[
    {
        "Altitude(m)": 604234.6057806505,
        "Argument of Periapsis(deg)": 0.0,
        "Eccentricity": 0.0,
        "Inclination(deg)": 60.0,
        "Latitude(deg)": 14.117216095114296,
        "Longitude(deg)": 1.7273031799232403,
        "Mean Anomaly(deg)": -196.36359999999996,
        "RAAN(deg)": 290.0,
        "Satellite Name": "Test1 1286",
        "Satellite Number": 1286,
        "Semi-Major Axis(m)": 6980739.136638005,
        "Time(s)": 0
    },
    {
        "Altitude(m)": 604223.4345525099,
        "Argument of Periapsis(deg)": 0.00010418945913296404,
        "Eccentricity": 0.0,
        "Inclination(deg)": 60.0,
        "Latitude(deg)": 13.582352949476604,
        "Longitude(deg)": 2.014213283785592,
        "Mean Anomaly(deg)": -195.7434938545382,
        "RAAN(deg)": 289.99957995086027,
        "Satellite Name": "Test1 1286",
        "Satellite Number": 1286,
        "Semi-Major Axis(m)": 6980739.136638005,
        "Time(s)": 10
    },
    {
        "Altitude(m)": 604215.2185824453,
        "Argument of Periapsis(deg)": 0.0002083789182659281,
        "Eccentricity": 0.0,
        "Inclination(deg)": 60.0,
        "Latitude(deg)": 13.047041664538403,
        "Longitude(deg)": 2.299652874780608,
        "Mean Anomaly(deg)": -195.12338770907633,
        "RAAN(deg)": 289.99915990172053,
        "Satellite Name": "Test1 1286",
        "Satellite Number": 1286,
        "Semi-Major Axis(m)": 6980739.136638005,
        "Time(s)": 20
    },
    {
        "Altitude(m)": 604209.9857624178,
        "Argument of Periapsis(deg)": 0.00031256837739889213,
        "Eccentricity": 0.0,
        "Inclination(deg)": 60.0,
        "Latitude(deg)": 12.511302629060445,
        "Longitude(deg)": 2.5836866663550873,
        "Mean Anomaly(deg)": -194.5032815636145,
        "RAAN(deg)": 289.9987398525808,
        "Satellite Name": "Test1 1286",
        "Satellite Number": 1286,
        "Semi-Major Axis(m)": 6980739.136638005,
        "Time(s)": 30
    },
    {
        "Altitude(m)": 604207.7626403499,
        "Argument of Periapsis(deg)": 0.0004167578365318562,
        "Eccentricity": 0.0,
        "Inclination(deg)": 60.0,
        "Latitude(deg)": 11.975155955847066,
        "Longitude(deg)": 2.86637902658051,
        "Mean Anomaly(deg)": -193.88317541815266,
        "RAAN(deg)": 289.99831980344106,
        "Satellite Name": "Test1 1286",
        "Satellite Number": 1286,
        "Semi-Major Axis(m)": 6980739.136638005,
        "Time(s)": 40
    },
    {
        "Altitude(m)": 604208.5744043397,
        "Argument of Periapsis(deg)": 0.0005209472956648203,
        "Eccentricity": 0.0,
        "Inclination(deg)": 60.0,
        "Latitude(deg)": 11.438621495692184,
        "Longitude(deg)": 3.1477930098697136,
        "Mean Anomaly(deg)": -193.2630692726908,
        "RAAN(deg)": 289.9978997543013,
        "Satellite Name": "Test1 1286",
        "Satellite Number": 1286,
        "Semi-Major Axis(m)": 6980739.136638005,
        "Time(s)": 50
    },
    {
        "Altitude(m)": 604212.4448675172,
        "Argument of Periapsis(deg)": 0.0006251367547977843,
        "Eccentricity": 0.0,
        "Inclination(deg)": 60.0,
        "Latitude(deg)": 10.901718850970896,
        "Longitude(deg)": 3.427990900878067,
        "Mean Anomaly(deg)": -192.64296312722897,
        "RAAN(deg)": 289.99747970516154,
        "Satellite Name": "Test1 1286",
        "Satellite Number": 1286,
        "Semi-Major Axis(m)": 6980739.136638005,
        "Time(s)": 60
    },
    {
        "Altitude(m)": 604219.3964535835,
        "Argument of Periapsis(deg)": 0.0007293262139307483,
        "Eccentricity": 0.0,
        "Inclination(deg)": 60.0,
        "Latitude(deg)": 10.36446738889367,
        "Longitude(deg)": 3.707034757747088,
        "Mean Anomaly(deg)": -192.02285698176718,
        "RAAN(deg)": 289.9970596560218,
        "Satellite Name": "Test1 1286",
        "Satellite Number": 1286,
        "Semi-Major Axis(m)": 6980739.136638005,
        "Time(s)": 70
    },
    {
        "Altitude(m)": 604229.4501830034,
        "Argument of Periapsis(deg)": 0.0008335156730637124,
        "Eccentricity": 0.0,
        "Inclination(deg)": 60.0,
        "Latitude(deg)": 9.82688625443831,
        "Longitude(deg)": 3.9849854418449464,
        "Mean Anomaly(deg)": -191.40275083630533,
        "RAAN(deg)": 289.99663960688207,
        "Satellite Name": "Test1 1286",
        "Satellite Number": 1286,
        "Semi-Major Axis(m)": 6980739.136638005,
        "Time(s)": 80
    },
    {
        "Altitude(m)": 604242.6256599022,
        "Argument of Periapsis(deg)": 0.0009377051321966765,
        "Eccentricity": 0.0,
        "Inclination(deg)": 60.0,
        "Latitude(deg)": 9.288994382984205,
        "Longitude(deg)": 4.26190315978052,
        "Mean Anomaly(deg)": -190.78264469084357,
        "RAAN(deg)": 289.99621955774234,
        "Satellite Name": "Test1 1286",
        "Satellite Number": 1286,
        "Semi-Major Axis(m)": 6980739.136638005,
        "Time(s)": 90
    },
    {
        "Altitude(m)": 604258.9410596229,
        "Argument of Periapsis(deg)": 0.0010418945913296407,
        "Eccentricity": 0.0,
        "Inclination(deg)": 60.0,
        "Latitude(deg)": 8.750810512661932,
        "Longitude(deg)": 4.537848004848229,
        "Mean Anomaly(deg)": -190.16253854538172,
        "RAAN(deg)": 289.9957995086026,
        "Satellite Name": "Test1 1286",
        "Satellite Number": 1286,
        "Semi-Major Axis(m)": 6980739.136638005,
        "Time(s)": 100
    },
    {
        "Altitude(m)": 604278.4131169943,
        "Argument of Periapsis(deg)": 0.0011460840504626045,
        "Eccentricity": 0.0,
        "Inclination(deg)": 60.0,
        "Latitude(deg)": 8.212353196435402,
        "Longitude(deg)": 4.812878985057664,
        "Mean Anomaly(deg)": -189.5424323999199,
        "RAAN(deg)": 289.99537945946287,
        "Satellite Name": "Test1 1286",
        "Satellite Number": 1286,
        "Semi-Major Axis(m)": 6980739.136638005,
        "Time(s)": 110
    },
    {
        "Altitude(m)": 604301.0571152956,
        "Argument of Periapsis(deg)": 0.0012502735095955685,
        "Eccentricity": 0.0,
        "Inclination(deg)": 60.0,
        "Latitude(deg)": 7.673640813935297,
        "Longitude(deg)": 5.087054563527369,
        "Mean Anomaly(deg)": -188.92232625445806,
        "RAAN(deg)": 289.99495941032313,
        "Satellite Name": "Test1 1286",
        "Satellite Number": 1286,
        "Semi-Major Axis(m)": 6980739.136638005,
        "Time(s)": 120
    },
    {
        "Altitude(m)": 604326.8868759307,
        "Argument of Periapsis(deg)": 0.0013544629687285324,
        "Eccentricity": 0.0,
        "Inclination(deg)": 60.0,
        "Latitude(deg)": 7.134691583060829,
        "Longitude(deg)": 5.360433198396795,
        "Mean Anomaly(deg)": -188.3022201089962,
        "RAAN(deg)": 289.99453936118334,
        "Satellite Name": "Test1 1286",
        "Satellite Number": 1286,
        "Semi-Major Axis(m)": 6980739.136638005,
        "Time(s)": 130
    },
    {
        "Altitude(m)": 604355.914748806,
        "Argument of Periapsis(deg)": 0.0014586524278614966,
        "Eccentricity": 0.0,
        "Inclination(deg)": 60.0,
        "Latitude(deg)": 6.595523571360512,
        "Longitude(deg)": 5.633072369414178,
        "Mean Anomaly(deg)": -187.68211396353433,
        "RAAN(deg)": 289.9941193120436,
        "Satellite Name": "Test1 1286",
        "Satellite Number": 1286,
        "Semi-Major Axis(m)": 6980739.136638005,
        "Time(s)": 140
    },
    {
        "Altitude(m)": 604388.1516034487,
        "Argument of Periapsis(deg)": 0.0015628418869944607,
        "Eccentricity": 0.0,
        "Inclination(deg)": 60.0,
        "Latitude(deg)": 6.056154707214597,
        "Longitude(deg)": 5.905029116975825,
        "Mean Anomaly(deg)": -187.06200781807254,
        "RAAN(deg)": 289.99369926290393,
        "Satellite Name": "Test1 1286",
        "Satellite Number": 1286,
        "Semi-Major Axis(m)": 6980739.136638005,
        "Time(s)": 150
    },
    {
        "Altitude(m)": 604423.6068208225,
        "Argument of Periapsis(deg)": 0.0016670313461274247,
        "Eccentricity": 0.0,
        "Inclination(deg)": 60.0,
        "Latitude(deg)": 5.516602790831057,
        "Longitude(deg)": 6.176360580773594,
        "Mean Anomaly(deg)": -186.4419016726107,
        "RAAN(deg)": 289.99327921376414,
        "Satellite Name": "Test1 1286",
        "Satellite Number": 1286,
        "Semi-Major Axis(m)": 6980739.136638005,
        "Time(s)": 160
    },
    {
        "Altitude(m)": 604462.2882858972,
        "Argument of Periapsis(deg)": 0.0017712208052603888,
        "Eccentricity": 0.0,
        "Inclination(deg)": 60.0,
        "Latitude(deg)": 4.976885505067978,
        "Longitude(deg)": 6.447123025206697,
        "Mean Anomaly(deg)": -185.82179552714885,
        "RAAN(deg)": 289.9928591646244,
        "Satellite Name": "Test1 1286",
        "Satellite Number": 1286,
        "Semi-Major Axis(m)": 6980739.136638005,
        "Time(s)": 170
    },
    {
        "Altitude(m)": 604504.2023809291,
        "Argument of Periapsis(deg)": 0.001875410264393353,
        "Eccentricity": 0.0,
        "Inclination(deg)": 60.0,
        "Latitude(deg)": 4.437020426102012,
        "Longitude(deg)": 6.71737237733348,
        "Mean Anomaly(deg)": -185.201689381687,
        "RAAN(deg)": 289.9924391154847,
        "Satellite Name": "Test1 1286",
        "Satellite Number": 1286,
        "Semi-Major Axis(m)": 6980739.136638005,
        "Time(s)": 180
    },
    {
        "Altitude(m)": 604549.3539795012,
        "Argument of Periapsis(deg)": 0.0019795997235263173,
        "Eccentricity": 0.0,
        "Inclination(deg)": 60.0,
        "Latitude(deg)": 3.8970250339552988,
        "Longitude(deg)": 6.987164764520047,
        "Mean Anomaly(deg)": -184.58158323622519,
        "RAAN(deg)": 289.99201906634494,
        "Satellite Name": "Test1 1286",
        "Satellite Number": 1286,
        "Semi-Major Axis(m)": 6980739.136638005,
        "Time(s)": 190
    }
]